0 FENGYUN 1C DEB
1 37068U 99025EFC 13287.20710503  .00013181  00000-0  24012-2 0  1300
2 37068 098.6633 295.8959 0234165 298.8992 197.1814 14.49939218252073
0 FENGYUN 1C DEB
1 37068U 99025EFC 13289.25078777  .00014358  00000-0  26163-2 0  1314
2 37068 098.6622 298.0028 0233395 292.7463 064.9721 14.50002350252374
0 FENGYUN 1C DEB
1 37068U 99025EFC 13291.87289489  .00015162  00000-0  27661-2 0  1328
2 37068 098.6639 300.7051 0232227 284.6297 072.9994 14.50086253252754
0 FENGYUN 1C DEB
1 37068U 99025EFC 13294.83983435  .00015027  00000-0  27338-2 0  1331
2 37068 098.6619 303.7566 0232471 275.9197 081.5006 14.50174392253189
